{
    "links": {
        "self": "http://www.neowsapp.com/rest/v1/neo/3019077?api_key=iIulBulltgU6a56xZRHN4H3l9WmuAYTsLGpBGhQ2"
    },
    "id": "3019077",
    "neo_reference_id": "3019077",
    "name": "(1999 DY2)",
    "designation": "1999 DY2",
    "nasa_jpl_url": "http://ssd.jpl.nasa.gov/sbdb.cgi?sstr=3019077",
    "absolute_magnitude_h": 21.9,
    "estimated_diameter": {
        "kilometers": {
            "estimated_diameter_min": 0.1108038821,
            "estimated_diameter_max": 0.2477650126
        },
        "meters": {
            "estimated_diameter_min": 110.8038821264,
            "estimated_diameter_max": 247.7650126055
        },
        "miles": {
            "estimated_diameter_min": 0.068850319,
            "estimated_diameter_max": 0.1539539936
        },
        "feet": {
            "estimated_diameter_min": 363.5298086356,
            "estimated_diameter_max": 812.8773639568
        }
    },
    "is_potentially_hazardous_asteroid": false,
    "close_approach_data": [
        {
            "close_approach_date": "1999-03-02",
            "close_approach_date_full": "1999-Mar-02 22:51",
            "epoch_date_close_approach": 920415060000,
            "relative_velocity": {
                "kilometers_per_second": "6.1060982299",
                "kilometers_per_hour": "21981.9536275336",
                "miles_per_hour": "13658.7311303972"
            },
            "miss_distance": {
                "astronomical": "0.1123177445",
                "lunar": "43.6916026105",
                "kilometers": "16802495.340404215",
                "miles": "10440586.468099567"
            },
            "orbiting_body": "Earth"
        },
        {
            "close_approach_date": "2034-01-30",
            "close_approach_date_full": "2034-Jan-30 08:45",
            "epoch_date_close_approach": 2022223500000,
            "relative_velocity": {
                "kilometers_per_second": "13.1710745741",
                "kilometers_per_hour": "47415.8684668828",
                "miles_per_hour": "29462.3767148806"
            },
            "miss_distance": {
                "astronomical": "0.3720757278",
                "lunar": "144.7374581142",
                "kilometers": "55661736.357579786",
                "miles": "34586599.1706856068"
            },
            "orbiting_body": "Earth"
        },
        {
            "close_approach_date": "2095-03-31",
            "close_approach_date_full": "2095-Mar-31 07:18",
            "epoch_date_close_approach": 3952394280000,
            "relative_velocity": {
                "kilometers_per_second": "16.1782360548",
                "kilometers_per_hour": "58241.6497973455",
                "miles_per_hour": "36189.0962310228"
            },
            "miss_distance": {
                "astronomical": "0.4570898365",
                "lunar": "177.8079463985",
                "kilometers": "68379665.939048255",
                "miles": "42489154.166265719"
            },
            "orbiting_body": "Earth"
        },
        {
            "close_approach_date": "2098-02-22",
            "close_approach_date_full": "2098-Feb-22 08:47",
            "epoch_date_close_approach": 4043897220000,
            "relative_velocity": {
                "kilometers_per_second": "6.4690767085",
                "kilometers_per_hour": "23288.6761506288",
                "miles_per_hour": "14470.6776892616"
            },
            "miss_distance": {
                "astronomical": "0.1519021282",
                "lunar": "59.0899278698",
                "kilometers": "22724234.827186934",
                "miles": "14120184.7599463292"
            },
            "orbiting_body": "Earth"
        },
        {
            "close_approach_date": "2136-02-06",
            "close_approach_date_full": "2136-Feb-06 15:47",
            "epoch_date_close_approach": 5241599220000,
            "relative_velocity": {
                "kilometers_per_second": "13.2279462032",
                "kilometers_per_hour": "47620.60633157",
                "miles_per_hour": "29589.5928619692"
            },
            "miss_distance": {
                "astronomical": "0.4204001121",
                "lunar": "163.5356436069",
                "kilometers": "62890961.317921227",
                "miles": "39078631.2627458526"
            },
            "orbiting_body": "Earth"
        }
    ],
    "orbital_data": {
        "orbit_id": "12",
        "orbit_determination_date": "2017-04-06 09:17:31",
        "first_observation_date": "1999-02-18",
        "last_observation_date": "1999-04-15",
        "data_arc_in_days": 56,
        "observations_used": 82,
        "orbit_uncertainty": "6",
        "minimum_orbit_intersection": ".108279",
        "jupiter_tisserand_invariant": "3.650",
        "epoch_osculation": "2459000.5",
        "eccentricity": ".4641181238939301",
        "semi_major_axis": "2.03986064814902",
        "inclination": "7.625463380061743",
        "ascending_node_longitude": "352.2101518400198",
        "orbital_period": "1064.14100086189",
        "perihelion_distance": "1.093124351125041",
        "perihelion_argument": "161.3297089189699",
        "aphelion_distance": "2.986596945173",
        "perihelion_time": "2458681.890927540879",
        "mean_anomaly": "107.7857783812333",
        "mean_motion": ".3383010331416811",
        "equinox": "J2000",
        "orbit_class": {
            "orbit_class_type": "AMO",
            "orbit_class_description": "Near-Earth asteroid orbits similar to that of 1221 Amor",
            "orbit_class_range": "1.017 AU < q (perihelion) < 1.3 AU"
        }
    },
    "is_sentry_object": false
}